start=new Date('2022-07-02T00:00:00.000Z').valueOf();
sats=[{"INCLINATION":"53.2153","MEAN_MOTION_DDOT":"0.0000000000000","RA_OF_ASC_NODE":"79.3347","COUNTRY_CODE":"US","TLE_LINE2":"2 52679  53.2153  79.3347 0002033  33.6393 150.0012 15.73232827  1301","PERIAPSIS":"348.299","LAUNCH_DATE":"2022-05-18","GP_ID":"207212168","REF_FRAME":"TEME","APOAPSIS":"351.034","DECAY_DATE":null,"CENTER_NAME":"EARTH","MEAN_MOTION_DOT":"0.00000519","CLASSIFICATION_TYPE":"U","SITE":"AFETR","OBJECT_NAME":"STARLINK-4031","RCS_SIZE":"LARGE","BSTAR":"0.00000811100000","REV_AT_EPOCH":"130","NORAD_CAT_ID":"52679","PERIOD":"91.531","EPHEMERIS_TYPE":"0","ARG_OF_PERICENTER":"33.6393","EPOCH":"2022-07-01T14:00:01.000224","ECCENTRICITY":"0.00020330","SEMIMAJOR_AXIS":"6727.802","OBJECT_ID":"2022-053Z","MEAN_ANOMALY":"150.0012","ELEMENT_SET_NO":"999","OBJECT_TYPE":"PAYLOAD","FILE":"3506285","MEAN_MOTION":"15.73232827","MEAN_ELEMENT_THEORY":"SGP4","TIME_SYSTEM":"UTC","TLE_LINE1":"1 52679U 22053Z   22182.58334491  .00000519  00000-0  81110-5 0  9994"},{"FILE":"3506185","MEAN_MOTION":"15.73213385","MEAN_ELEMENT_THEORY":"SGP4","TIME_SYSTEM":"UTC","TLE_LINE1":"1 52680U 22053AA  22182.58334491  .00048419  00000-0  34721-3 0  9991","EPOCH":"2022-07-01T14:00:01.000224","ECCENTRICITY":"0.00019190","SEMIMAJOR_AXIS":"6727.857","OBJECT_ID":"2022-053AA","MEAN_ANOMALY":"150.2296","ELEMENT_SET_NO":"999","OBJECT_TYPE":"PAYLOAD","CLASSIFICATION_TYPE":"U","OBJECT_NAME":"STARLINK-3774","SITE":"AFETR","RCS_SIZE":"LARGE","BSTAR":"0.00034721000000","REV_AT_EPOCH":"727","PERIOD":"91.532","NORAD_CAT_ID":"52680","EPHEMERIS_TYPE":"0","ARG_OF_PERICENTER":"31.0140","INCLINATION":"53.2153","RA_OF_ASC_NODE":"79.3366","MEAN_MOTION_DDOT":"0.0000000000000","COUNTRY_CODE":"US","TLE_LINE2":"2 52680  53.2153  79.3366 0001919  31.0140 150.2296 15.73213385  7274","PERIAPSIS":"348.431","LAUNCH_DATE":"2022-05-18","GP_ID":"207185346","APOAPSIS":"351.013","REF_FRAME":"TEME","CENTER_NAME":"EARTH","DECAY_DATE":null,"MEAN_MOTION_DOT":"0.00048419"},{"OBJECT_TYPE":"PAYLOAD","EPOCH":"2022-07-01T14:00:01.000224","OBJECT_ID":"2022-053AB","ECCENTRICITY":"0.00024600","SEMIMAJOR_AXIS":"6727.941","ELEMENT_SET_NO":"999","MEAN_ANOMALY":"173.9912","MEAN_ELEMENT_THEORY":"SGP4","TIME_SYSTEM":"UTC","TLE_LINE1":"1 52681U 22053AB  22182.58334491  .00059240  00000-0  42379-3 0  9994","FILE":"3506185","MEAN_MOTION":"15.73183876","GP_ID":"207185350","DECAY_DATE":null,"CENTER_NAME":"EARTH","APOAPSIS":"351.461","REF_FRAME":"TEME","MEAN_MOTION_DOT":"0.00059240","MEAN_MOTION_DDOT":"0.0000000000000","RA_OF_ASC_NODE":"79.3297","INCLINATION":"53.2155","COUNTRY_CODE":"US","TLE_LINE2":"2 52681  53.2155  79.3297 0002460  10.3436 173.9912 15.73183876  7278","LAUNCH_DATE":"2022-05-18","PERIAPSIS":"348.151","ARG_OF_PERICENTER":"10.3436","OBJECT_NAME":"STARLINK-4068","SITE":"AFETR","RCS_SIZE":"LARGE","CLASSIFICATION_TYPE":"U","REV_AT_EPOCH":"727","BSTAR":"0.00042379000000","EPHEMERIS_TYPE":"0","NORAD_CAT_ID":"52681","PERIOD":"91.534"},{"TLE_LINE1":"1 52682U 22053AC  22182.58334491  .00070862  00000-0  50556-3 0  9994","TIME_SYSTEM":"UTC","MEAN_ELEMENT_THEORY":"SGP4","MEAN_MOTION":"15.73176000","FILE":"3506185","OBJECT_TYPE":"PAYLOAD","ELEMENT_SET_NO":"999","MEAN_ANOMALY":"151.0031","OBJECT_ID":"2022-053AC","ECCENTRICITY":"0.00020400","SEMIMAJOR_AXIS":"6727.964","EPOCH":"2022-07-01T14:00:01.000224","ARG_OF_PERICENTER":"31.4928","EPHEMERIS_TYPE":"0","PERIOD":"91.535","NORAD_CAT_ID":"52682","REV_AT_EPOCH":"727","BSTAR":"0.00050556000000","RCS_SIZE":"LARGE","SITE":"AFETR","OBJECT_NAME":"STARLINK-4017","CLASSIFICATION_TYPE":"U","MEAN_MOTION_DOT":"0.00070862","CENTER_NAME":"EARTH","DECAY_DATE":null,"REF_FRAME":"TEME","APOAPSIS":"351.201","GP_ID":"207185355","LAUNCH_DATE":"2022-05-18","PERIAPSIS":"348.456","COUNTRY_CODE":"US","TLE_LINE2":"2 52682  53.2138  79.3336 0002040  31.4928 151.0031 15.73176000  7278","MEAN_MOTION_DDOT":"0.0000000000000","RA_OF_ASC_NODE":"79.3336","INCLINATION":"53.2138"},{"PERIAPSIS":"348.550","LAUNCH_DATE":"2022-05-18","TLE_LINE2":"2 52683  53.2154  79.3278 0001851  27.7614 157.6210 15.73187791  7271","COUNTRY_CODE":"US","INCLINATION":"53.2154","MEAN_MOTION_DDOT":"0.0000000000000","RA_OF_ASC_NODE":"79.3278","MEAN_MOTION_DOT":"0.00071274","APOAPSIS":"351.040","REF_FRAME":"TEME","CENTER_NAME":"EARTH","DECAY_DATE":null,"GP_ID":"207185194","NORAD_CAT_ID":"52683","PERIOD":"91.534","EPHEMERIS_TYPE":"0","REV_AT_EPOCH":"727","BSTAR":"0.00050820000000","CLASSIFICATION_TYPE":"U","SITE":"AFETR","OBJECT_NAME":"STARLINK-4039","RCS_SIZE":"LARGE","ARG_OF_PERICENTER":"27.7614","MEAN_ANOMALY":"157.6210","ELEMENT_SET_NO":"999","SEMIMAJOR_AXIS":"6727.930","ECCENTRICITY":"0.00018510","OBJECT_ID":"2022-053AD","EPOCH":"2022-07-01T14:00:01.000224","OBJECT_TYPE":"PAYLOAD","MEAN_MOTION":"15.73187791","FILE":"3506185","TLE_LINE1":"1 52683U 22053AD  22182.58334491  .00071274  00000-0  50820-3 0  9997","TIME_SYSTEM":"UTC","MEAN_ELEMENT_THEORY":"SGP4"},{"ELEMENT_SET_NO":"999","MEAN_ANOMALY":"145.9799","OBJECT_ID":"2022-053AE","SEMIMAJOR_AXIS":"6727.844","ECCENTRICITY":"0.00019270","EPOCH":"2022-07-01T14:00:01.000224","OBJECT_TYPE":"PAYLOAD","MEAN_MOTION":"15.73217874","FILE":"3506186","TLE_LINE1":"1 52684U 22053AE  22182.58334491 -.00003935  00000-0 -23602-4 0  9998","TIME_SYSTEM":"UTC","MEAN_ELEMENT_THEORY":"SGP4","LAUNCH_DATE":"2022-05-18","PERIAPSIS":"348.413","COUNTRY_CODE":"US","TLE_LINE2":"2 52684  53.2156  79.3329 0001927  37.1048 145.9799 15.73217874  7279","RA_OF_ASC_NODE":"79.3329","MEAN_MOTION_DDOT":"0.0000000000000","INCLINATION":"53.2156","MEAN_MOTION_DOT":"-0.00003935","DECAY_DATE":null,"CENTER_NAME":"EARTH","REF_FRAME":"TEME","APOAPSIS":"351.006","GP_ID":"207185358","EPHEMERIS_TYPE":"0","NORAD_CAT_ID":"52684","PERIOD":"91.532","REV_AT_EPOCH":"727","BSTAR":"-0.00002360200000","OBJECT_NAME":"STARLINK-4014","SITE":"AFETR","RCS_SIZE":"LARGE","CLASSIFICATION_TYPE":"U","ARG_OF_PERICENTER":"37.1048"},{"BSTAR":"0.00050923000000","REV_AT_EPOCH":"130","PERIOD":"91.535","NORAD_CAT_ID":"52685","EPHEMERIS_TYPE":"0","CLASSIFICATION_TYPE":"U","RCS_SIZE":"LARGE","SITE":"AFETR","OBJECT_NAME":"STARLINK-4029","ARG_OF_PERICENTER":"20.0278","COUNTRY_CODE":"US","TLE_LINE2":"2 52685  53.2153  79.3257 0001690  20.0278 167.2358 15.73171684  1304","PERIAPSIS":"348.704","LAUNCH_DATE":"2022-05-18","INCLINATION":"53.2153","MEAN_MOTION_DDOT":"0.0000000000000","RA_OF_ASC_NODE":"79.3257","MEAN_MOTION_DOT":"0.00071371","GP_ID":"207212420","REF_FRAME":"TEME","APOAPSIS":"350.978","DECAY_DATE":null,"CENTER_NAME":"EARTH","MEAN_MOTION":"15.73171684","FILE":"3506285","TIME_SYSTEM":"UTC","TLE_LINE1":"1 52685U 22053AF  22182.58334491  .00071371  00000-0  50923-3 0  9991","MEAN_ELEMENT_THEORY":"SGP4","MEAN_ANOMALY":"167.2358","ELEMENT_SET_NO":"999","EPOCH":"2022-07-01T14:00:01.000224","SEMIMAJOR_AXIS":"6727.976","ECCENTRICITY":"0.00016900","OBJECT_ID":"2022-053AF","OBJECT_TYPE":"PAYLOAD"},{"MEAN_MOTION_DOT":"0.00052115","APOAPSIS":"351.094","REF_FRAME":"TEME","CENTER_NAME":"EARTH","DECAY_DATE":null,"GP_ID":"207185207","PERIAPSIS":"348.631","LAUNCH_DATE":"2022-05-18","COUNTRY_CODE":"US","TLE_LINE2":"2 52686  53.2155  79.3295 0001830  27.0188 157.8493 15.73164114  7279","INCLINATION":"53.2155","MEAN_MOTION_DDOT":"0.0000000000000","RA_OF_ASC_NODE":"79.3295","ARG_OF_PERICENTER":"27.0188","PERIOD":"91.535","NORAD_CAT_ID":"52686","EPHEMERIS_TYPE":"0","BSTAR":"0.00037400000000","REV_AT_EPOCH":"727","CLASSIFICATION_TYPE":"U","SITE":"AFETR","RCS_SIZE":"LARGE","OBJECT_NAME":"STARLINK-4005","OBJECT_TYPE":"PAYLOAD","MEAN_ANOMALY":"157.8493","ELEMENT_SET_NO":"999","SEMIMAJOR_AXIS":"6727.997","ECCENTRICITY":"0.00018300","OBJECT_ID":"2022-053AG","EPOCH":"2022-07-01T14:00:01.000224","TLE_LINE1":"1 52686U 22053AG  22182.58334491  .00052115  00000-0  37400-3 0  9992","TIME_SYSTEM":"UTC","MEAN_ELEMENT_THEORY":"SGP4","MEAN_MOTION":"15.73164114","FILE":"3506186"},{"MEAN_ELEMENT_THEORY":"SGP4","TLE_LINE1":"1 52687U 22053AH  22182.58334491  .00035764  00000-0  25795-3 0  9998","TIME_SYSTEM":"UTC","FILE":"3506285","MEAN_MOTION":"15.73218105","OBJECT_TYPE":"PAYLOAD","ECCENTRICITY":"0.00018440","SEMIMAJOR_AXIS":"6727.844","OBJECT_ID":"2022-053AH","EPOCH":"2022-07-01T14:00:01.000224","MEAN_ANOMALY":"163.7969","ELEMENT_SET_NO":"999","ARG_OF_PERICENTER":"23.9959","CLASSIFICATION_TYPE":"U","SITE":"AFETR","RCS_SIZE":"LARGE","OBJECT_NAME":"STARLINK-3981","PERIOD":"91.532","NORAD_CAT_ID":"52687","EPHEMERIS_TYPE":"0","REV_AT_EPOCH":"130","BSTAR":"0.00025795000000","REF_FRAME":"TEME","APOAPSIS":"350.949","CENTER_NAME":"EARTH","DECAY_DATE":null,"GP_ID":"207212169","MEAN_MOTION_DOT":"0.00035764","INCLINATION":"53.2156","MEAN_MOTION_DDOT":"0.0000000000000","RA_OF_ASC_NODE":"79.3227","PERIAPSIS":"348.468","LAUNCH_DATE":"2022-05-18","COUNTRY_CODE":"US","TLE_LINE2":"2 52687  53.2156  79.3227 0001844  23.9959 163.7969 15.73218105  1304"},{"CLASSIFICATION_TYPE":"U","SITE":"AFETR","OBJECT_NAME":"STARLINK-4032","RCS_SIZE":"LARGE","PERIOD":"91.533","NORAD_CAT_ID":"52688","EPHEMERIS_TYPE":"0","BSTAR":"0.00026110000000","REV_AT_EPOCH":"130","ARG_OF_PERICENTER":"32.5839","INCLINATION":"53.2153","MEAN_MOTION_DDOT":"0.0000000000000","RA_OF_ASC_NODE":"79.3269","PERIAPSIS":"348.438","LAUNCH_DATE":"2022-05-18","TLE_LINE2":"2 52688  53.2153  79.3269 0001937  32.5839 153.4887 15.73206645  1305","COUNTRY_CODE":"US","APOAPSIS":"351.044","REF_FRAME":"TEME","DECAY_DATE":null,"CENTER_NAME":"EARTH","GP_ID":"207212622","MEAN_MOTION_DOT":"0.00036193","FILE":"3506285","MEAN_MOTION":"15.73206645","MEAN_ELEMENT_THEORY":"SGP4","TLE_LINE1":"1 52688U 22053AJ  22182.58334491  .00036193  00000-0  26110-3 0  9998","TIME_SYSTEM":"UTC","SEMIMAJOR_AXIS":"6727.876","ECCENTRICITY":"0.00019370","OBJECT_ID":"2022-053AJ","EPOCH":"2022-07-01T14:00:01.000224","MEAN_ANOMALY":"153.4887","ELEMENT_SET_NO":"999","OBJECT_TYPE":"PAYLOAD"}];
